NORAD_CAT_ID,OBJECT_NAME,OBJECT_TYPE,EPOCH,MEAN_MOTION,ECCENTRICITY,INCLINATION,RA_OF_ASC_NODE,ARG_OF_PERICENTER,MEAN_ANOMALY,BSTAR,MEAN_MOTION_DOT,MEAN_MOTION_DDOT,TLE_LINE0,TLE_LINE1,TLE_LINE2,SEMIMAJOR_AXIS,PERIOD,APOGEE,PERIGEE,DECAYED
54195.0,STARLINK-5258,PAYLOAD,2023-01-02 00:00:00,15.56234233,0.0001225,53.2172,177.9047,69.4522,178.2328,-0.017514,-0.01130368,0.0,0 STARLINK-5258,1 54195U 22141AQ  23002.00001157 -.01130368  00000-0 -17514-1 0  9998,2 54195  53.2172 177.9047 0001225  69.4522 178.2328 15.56234233  1308,6776.704000000002,92.531,399.399,397.739,0.0
54195.0,STARLINK-5258,PAYLOAD,2023-01-02 14:00:01,15.54822458,0.000135,53.217,175.0924,61.9329,214.1835,-0.018763,-0.01147253,0.0,0 STARLINK-5258,1 54195U 22141AQ  23002.58334491 -.01147253  00000-0 -18763-1 0  9999,2 54195  53.2170 175.0924 0001350  61.9329 214.1835 15.54822458 10730,6780.806,92.615,403.586,401.755,0.0
54195.0,STARLINK-5258,PAYLOAD,2023-01-02 22:00:00,15.5400868,0.0001129,53.2169,173.4903,58.0901,284.3584,-0.019319,-0.01146339,0.0,0 STARLINK-5258,1 54195U 22141AQ  23002.91667824 -.01146339  00000-0 -19319-1 0  9997,2 54195  53.2169 173.4903 0001129  58.0901 284.3584 15.54008680  1300,6783.1730000000025,92.664,405.804,404.272,0.0
54195.0,STARLINK-5258,PAYLOAD,2023-01-03 14:00:01,15.52378353,0.0001405,53.2169,170.2865,51.7862,60.3987,-0.02044,-0.01143146,0.0,0 STARLINK-5258,1 54195U 22141AQ  23003.58334491 -.01143146  00000-0 -20440-1 0  9992,2 54195  53.2169 170.2865 0001405  51.7862  60.3987 15.52378353  1309,6787.920999999999,92.761,410.74,408.832,0.0
54195.0,STARLINK-5258,PAYLOAD,2023-01-04 14:00:01,15.49954226,0.0001710999999999,53.2166,165.4982,47.1426,252.4236,-0.0019805,-0.00111546,0.0,0 STARLINK-5258,1 54195U 22141AQ  23004.58335648 -.00111546  00000-0 -19805-2 0  9990,2 54195  53.2166 165.4982 0001711  47.1426 252.4236 15.49954226 11045,6794.996999999999,92.906,418.024,415.699,0.0
54195.0,STARLINK-5258,PAYLOAD,2023-01-04 22:00:00,15.49938246,0.0001426,53.2121,163.9117,43.1521,317.3386,-0.0004826999999999,-0.00027802,0.0,0 STARLINK-5258,1 54195U 22141AQ  23004.91667824 -.00027802  00000-0 -48270-3 0  9991,2 54195  53.2121 163.9117 0001426  43.1521 317.3386 15.49938246 11090,6795.044,92.907,417.878,415.94,0.0
54195.0,STARLINK-5258,PAYLOAD,2023-01-05 14:00:01,15.49902155,0.0001467,53.2128,160.724,49.6091,72.7742,-0.0013238,-0.00074916,0.0,0 STARLINK-5258,1 54195U 22141AQ  23005.58334491 -.00074916  00000-0 -13238-2 0  9999,2 54195  53.2128 160.7240 0001467  49.6091  72.7742 15.49902155  1308,6795.149,92.909,418.011,416.017,0.0
54195.0,STARLINK-5258,PAYLOAD,2023-01-05 20:00:01,15.49840464,0.000154,53.2129,159.5303,42.4932,35.579,-0.00040077,-0.00023095,0.0,0 STARLINK-5258,1 54195U 22141AQ  23005.83334491 -.00023095  00000-0 -40077-3 0  9991,2 54195  53.2129 159.5303 0001540  42.4932  35.5790 15.49840464  1306,6795.329000000002,92.913,418.241,416.148,0.0
54195.0,STARLINK-5258,PAYLOAD,2023-01-06 06:00:00,15.498114800000002,0.0001363,53.2129,157.5369,42.392,201.7611,0.0012106,0.00068683,0.0,0 STARLINK-5258,1 54195U 22141AQ  23006.25001157  .00068683  00000-0  12106-2 0  9999,2 54195  53.2129 157.5369 0001363  42.3920 201.7611 15.49811480 11299,6795.414000000002,92.915,418.205,416.353,0.0
54195.0,STARLINK-5258,PAYLOAD,2023-01-06 22:00:00,15.49858976,0.0001652,53.2124,154.3529,36.1224,329.7643,0.00078589,0.00044365,0.0,0 STARLINK-5258,1 54195U 22141AQ  23006.91667824  .00044365  00000-0  78589-3 0  9990,2 54195  53.2124 154.3529 0001652  36.1224 329.7643 15.49858976 11406,6795.275,92.912,418.263,416.018,0.0
54195.0,STARLINK-5258,PAYLOAD,2023-01-07 06:00:00,15.49859072,0.0001385,53.2139,152.7566,42.99,23.8062,0.0012292,0.00069873,0.0,0 STARLINK-5258,1 54195U 22141AQ  23007.25001157  .00069873  00000-0  12292-2 0  9998,2 54195  53.2139 152.7566 0001385  42.9900  23.8062 15.49859072  1307,6795.275,92.912,418.081,416.199,0.0
54195.0,STARLINK-5258,PAYLOAD,2023-01-07 14:00:01,15.50066206,0.0001475,53.2157,151.1624,43.6489,84.0325,-0.0090742,-0.00487781,0.0,0 STARLINK-5258,1 54195U 22141AQ  23007.58334491 -.00487781  00000-0 -90742-2 0  9994,2 54195  53.2157 151.1624 0001475  43.6489  84.0325 15.50066206 11500,6794.67,92.899,417.537,415.532,0.0
54195.0,STARLINK-5258,PAYLOAD,2023-01-07 22:00:00,15.49798893,0.0001756,53.2164,149.5687,39.8575,148.7535,-0.021189,-0.01086006,0.0,0 STARLINK-5258,1 54195U 22141AQ  23007.91667824 -.01086006  00000-0 -21189-1 0  9994,2 54195  53.2164 149.5687 0001756  39.8575 148.7535 15.49798893 11551,6795.451,92.915,418.509,416.1230000000001,0.0
54195.0,STARLINK-5258,PAYLOAD,2023-01-08 00:00:00,15.49629615,0.0001571999999999,53.2169,149.1694,37.753,256.022,-0.022352,-0.01133547,0.0,0 STARLINK-5258,1 54195U 22141AQ  23008.00001157 -.01133547  00000-0 -22352-1 0  9992,2 54195  53.2169 149.1694 0001572  37.7530 256.0220 15.49629615  1305,6795.946,92.925,418.879,416.742,0.0
54195.0,STARLINK-5258,PAYLOAD,2023-01-09 15:03:10,15.47298048,0.0001597,53.2157,141.4344,63.6881,296.4292,-0.005321,-0.00267031,0.0,0 STARLINK-5258,1 54195U 22141AQ  23009.62720553 -.00267031  00000-0 -53210-2 0  9992,2 54195  53.2157 141.4344 0001597  63.6881 296.4292 15.47298048 11828,6802.771,93.065,425.722,423.55,0.0
54195.0,STARLINK-5258,PAYLOAD,2023-01-09 22:00:00,15.44948615,0.0001746,53.2172,140.0452,41.0606,134.9625,-0.026204,-0.01145532,0.0,0 STARLINK-5258,1 54195U 22141AQ  23009.91667824 -.01145532  00000-0 -26204-1 0  9999,2 54195  53.2172 140.0452 0001746  41.0606 134.9625 15.44948615 11860,6809.666,93.207,432.72,430.342,0.0
54195.0,STARLINK-5258,PAYLOAD,2023-01-10 00:00:00,15.44744788,0.0001527,53.2173,139.6491,42.3968,237.3397,-0.026403,-0.01146066,0.0,0 STARLINK-5258,1 54195U 22141AQ  23010.00001157 -.01146066  00000-0 -26403-1 0  9996,2 54195  53.2173 139.6491 0001527  42.3968 237.3397 15.44744788  1307,6810.265,93.219,433.17,431.09,0.0
54195.0,STARLINK-5258,PAYLOAD,2023-01-10 14:00:01,15.4331242,0.0001734,53.2173,136.8852,34.3309,249.6824,-0.027351,-0.011319,0.0,0 STARLINK-5258,1 54195U 22141AQ  23010.58334491 -.01131900  00000-0 -27351-1 0  9993,2 54195  53.2173 136.8852 0001734  34.3309 249.6824 15.43312420  1301,6814.478,93.306,437.525,435.162,0.0
54195.0,STARLINK-5258,PAYLOAD,2023-01-10 22:00:00,15.42513535,0.0001561999999999,53.2168,135.3103,39.1523,297.3804,-0.028706,-0.01154124,0.0,0 STARLINK-5258,1 54195U 22141AQ  23010.91667824 -.01154124  00000-0 -28706-1 0  9997,2 54195  53.2168 135.3103 0001562  39.1523 297.3804 15.42513535 12026,6816.831,93.354,439.761,437.631,0.0
54195.0,STARLINK-5258,PAYLOAD,2023-01-11 14:00:01,15.40878441,0.000158,53.2175,132.1621,45.5705,33.0848,-0.029993,-0.01142487,0.0,0 STARLINK-5258,1 54195U 22141AQ  23011.58334491 -.01142487  00000-0 -29993-1 0  9990,2 54195  53.2175 132.1621 0001580  45.5705  33.0848 15.40878441  1307,6821.651999999999,93.453,444.595,442.44,0.0
54195.0,STARLINK-5258,PAYLOAD,2023-01-11 22:00:00,15.40063951,0.0001629,53.2173,130.5923,46.897,81.3512,-0.030777,-0.01141104,0.0,0 STARLINK-5258,1 54195U 22141AQ  23011.91667824 -.01141104  00000-0 -30777-1 0  9993,2 54195  53.2173 130.5923 0001629  46.8970  81.3512 15.40063951 12177,6824.057,93.503,447.034,444.811,0.0
54195.0,STARLINK-5258,PAYLOAD,2023-01-12 20:00:01,15.37840828,0.0001334,53.2125,126.2891,68.7057,100.9081,-0.033657,-0.01157974,0.0,0 STARLINK-5258,1 54195U 22141AQ  23012.83334491 -.01157974  00000-0 -33657-1 0  9998,2 54195  53.2125 126.2891 0001334  68.7057 100.9081 15.37840828 12319,6830.632,93.638,453.409,451.586,0.0
54195.0,STARLINK-5258,PAYLOAD,2023-01-12 22:00:00,15.37658915,0.0001154,53.2124,125.8975,75.9494,195.2343,-0.03538,-0.01205273,0.0,0 STARLINK-5258,1 54195U 22141AQ  23012.91667824 -.01205273  00000-0 -35380-1 0  9997,2 54195  53.2124 125.8975 0001154  75.9494 195.2343 15.37658915  1300,6831.170999999999,93.649,453.824,452.2480000000001,0.0
54195.0,STARLINK-5258,PAYLOAD,2023-01-13 14:00:01,15.3598145,0.0001174,53.2127,122.7738,73.3464,288.238,-0.034616,-0.01124131,0.0,0 STARLINK-5258,1 54195U 22141AQ  23013.58334491 -.01124131  00000-0 -34616-1 0  9996,2 54195  53.2127 122.7738 0001174  73.3464 288.2380 15.35981450  1302,6836.144,93.751,458.811,457.206,0.0
54195.0,STARLINK-5258,PAYLOAD,2023-01-13 22:00:00,15.35207993,0.0001060999999999,53.2127,121.2141,71.8556,333.4413,-0.037804,-0.01190791,0.0,0 STARLINK-5258,1 54195U 22141AQ  23013.91667824 -.01190791  00000-0 -37804-1 0  9999,2 54195  53.2127 121.2141 0001061  71.8556 333.4413 15.35207993 12488,6838.44,93.798,461.03,459.579,0.0
54195.0,STARLINK-5258,PAYLOAD,2023-01-14 14:00:01,15.33549276,0.0001325,53.2174,118.0966,85.4396,44.3495,-0.037769,-0.01133593,0.0,0 STARLINK-5258,1 54195U 22141AQ  23014.58334491 -.01133593  00000-0 -37769-1 0  9991,2 54195  53.2174 118.0966 0001325  85.4396  44.3495 15.33549276 12585,6843.37,93.9,466.142,464.328,0.0
54195.0,STARLINK-5258,PAYLOAD,2023-01-15 14:00:01,15.31088276,0.0001349,53.2136,113.4476,80.1507,169.1212,-0.039635,-0.011034,0.0,0 STARLINK-5258,1 54195U 22141AQ  23015.58334491 -.01103400  00000-0 -39635-1 0  9990,2 54195  53.2136 113.4476 0001349  80.1507 169.1212 15.31088276 12747,6850.701,94.051,473.49,471.642,0.0
54195.0,STARLINK-5258,PAYLOAD,2023-01-15 22:00:01,15.30320223,0.000125,53.2137,111.8992,79.2485,207.9329,-0.043938,-0.01202261,0.0,0 STARLINK-5258,1 54195U 22141AQ  23015.91668981 -.01202261  00000-0 -43938-1 0  9997,2 54195  53.2137 111.8992 0001250  79.2485 207.9329 15.30320223  1308,6852.993,94.098,475.715,474.002,0.0
54195.0,STARLINK-5258,PAYLOAD,2023-01-16 06:00:00,15.29501256,0.0001197,53.2141,110.3525,87.2089,236.7834,-0.043708,-0.01153179,0.0,0 STARLINK-5258,1 54195U 22141AQ  23016.25001157 -.01153179  00000-0 -43708-1 0  9999,2 54195  53.2141 110.3525 0001197  87.2089 236.7834 15.29501256 12845,6855.439,94.148,478.125,476.484,0.0
